{
"type": "FeatureCollection",
"name": "combined_osm",
"xy_coordinate_resolution": 0.000000,
"features": [
{ "type": "Feature", "id": "map — points_678973937", "properties": { "address": null, "barrier": null, "highway": null, "is_in": null, "man_made": null, "name": "Zoologisches Institut", "osm_id": "678973937", "other_tags": "\"addr:city\"=>\"Bonn\",\"addr:country\"=>\"DE\",\"addr:housenumber\"=>\"169\",\"addr:postcode\"=>\"53115\",\"addr:street\"=>\"Meckenheimer Allee\",\"operator\"=>\"Universität Bonn\",\"wheelchair\"=>\"limited\",\"wheelchair:description\"=>\"Aufzug vorhanden, nur mit Schlüssel zugänglich\"", "place": null, "ref": null, "source_layer": "map — points" }, "geometry": { "type": "Point", "coordinates": [ 7.092347, 50.7249324 ] } },
{ "type": "Feature", "id": "map — points_1564070251", "properties": { "address": null, "barrier": "cycle_barrier", "highway": null, "is_in": null, "man_made": null, "name": null, "osm_id": "1564070251", "other_tags": "\"cycle_barrier\"=>\"double\",\"cycle_barrier:installation\"=>\"fixed\",\"width\"=>\"1.4\"", "place": null, "ref": null, "source_layer": "map — points" }, "geometry": { "type": "Point", "coordinates": [ 7.0910236, 50.7249277 ] } },
{ "type": "Feature", "id": "map — points_1564070274", "properties": { "address": null, "barrier": null, "highway": "steps", "is_in": null, "man_made": null, "name": null, "osm_id": "1564070274", "other_tags": "\"step_count\"=>\"6\",\"wheelchair\"=>\"no\"", "place": null, "ref": null, "source_layer": "map — points" }, "geometry": { "type": "Point", "coordinates": [ 7.0912878, 50.7250375 ] } },
{ "type": "Feature", "id": "map — points_5462373719", "properties": { "address": null, "barrier": null, "highway": null, "is_in": null, "man_made": null, "name": null, "osm_id": "5462373719", "other_tags": "\"access\"=>\"yes\",\"amenity\"=>\"toilets\",\"changing_table\"=>\"no\",\"fee\"=>\"no\",\"female\"=>\"yes\",\"wheelchair\"=>\"no\"", "place": null, "ref": null, "source_layer": "map — points" }, "geometry": { "type": "Point", "coordinates": [ 7.0914257, 50.7244548 ] } },
{ "type": "Feature", "id": "map — points_5462373720", "properties": { "address": null, "barrier": null, "highway": null, "is_in": null, "man_made": null, "name": null, "osm_id": "5462373720", "other_tags": "\"entrance\"=>\"main\"", "place": null, "ref": null, "source_layer": "map — points" }, "geometry": { "type": "Point", "coordinates": [ 7.0913904, 50.7245053 ] } },
{ "type": "Feature", "id": "map — points_5462375621", "properties": { "address": null, "barrier": null, "highway": null, "is_in": null, "man_made": null, "name": null, "osm_id": "5462375621", "other_tags": "\"access\"=>\"yes\",\"amenity\"=>\"toilets\",\"changing_table\"=>\"no\",\"fee\"=>\"no\",\"male\"=>\"yes\",\"wheelchair\"=>\"no\"", "place": null, "ref": null, "source_layer": "map — points" }, "geometry": { "type": "Point", "coordinates": [ 7.0912933, 50.7245209 ] } },
{ "type": "Feature", "id": "map — points_6249989434", "properties": { "address": null, "barrier": null, "highway": null, "is_in": null, "man_made": null, "name": null, "osm_id": "6249989434", "other_tags": "\"entrance\"=>\"yes\"", "place": null, "ref": null, "source_layer": "map — points" }, "geometry": { "type": "Point", "coordinates": [ 7.0909887, 50.7246955 ] } },
{ "type": "Feature", "id": "map — points_7173094610", "properties": { "address": null, "barrier": null, "highway": null, "is_in": null, "man_made": null, "name": null, "osm_id": "7173094610", "other_tags": "\"amenity\"=>\"waste_basket\"", "place": null, "ref": null, "source_layer": "map — points" }, "geometry": { "type": "Point", "coordinates": [ 7.0910338, 50.724851 ] } },
{ "type": "Feature", "id": "map — points_8237682946", "properties": { "address": null, "barrier": null, "highway": null, "is_in": null, "man_made": null, "name": null, "osm_id": "8237682946", "other_tags": "\"natural\"=>\"tree\"", "place": null, "ref": null, "source_layer": "map — points" }, "geometry": { "type": "Point", "coordinates": [ 7.0910459, 50.724954 ] } },
{ "type": "Feature", "id": "map — points_8237682954", "properties": { "address": null, "barrier": null, "highway": null, "is_in": null, "man_made": null, "name": null, "osm_id": "8237682954", "other_tags": "\"natural\"=>\"tree\"", "place": null, "ref": null, "source_layer": "map — points" }, "geometry": { "type": "Point", "coordinates": [ 7.0911506, 50.7249783 ] } },
{ "type": "Feature", "id": "map — points_8237853233", "properties": { "address": null, "barrier": null, "highway": null, "is_in": null, "man_made": null, "name": null, "osm_id": "8237853233", "other_tags": "\"natural\"=>\"tree\"", "place": null, "ref": null, "source_layer": "map — points" }, "geometry": { "type": "Point", "coordinates": [ 7.0911282, 50.7245985 ] } },
{ "type": "Feature", "id": "map — points_8237957503", "properties": { "address": null, "barrier": null, "highway": null, "is_in": null, "man_made": null, "name": null, "osm_id": "8237957503", "other_tags": "\"board_type\"=>\"plants\",\"information\"=>\"board\",\"noname\"=>\"yes\",\"tourism\"=>\"information\"", "place": null, "ref": null, "source_layer": "map — points" }, "geometry": { "type": "Point", "coordinates": [ 7.0923317, 50.7245321 ] } },
{ "type": "Feature", "id": "map — points_8237957506", "properties": { "address": null, "barrier": null, "highway": null, "is_in": null, "man_made": null, "name": null, "osm_id": "8237957506", "other_tags": "\"entrance\"=>\"yes\"", "place": null, "ref": null, "source_layer": "map — points" }, "geometry": { "type": "Point", "coordinates": [ 7.0922379, 50.7246734 ] } },
{ "type": "Feature", "id": "map — points_8242554352", "properties": { "address": null, "barrier": null, "highway": null, "is_in": null, "man_made": null, "name": null, "osm_id": "8242554352", "other_tags": "\"natural\"=>\"tree\"", "place": null, "ref": null, "source_layer": "map — points" }, "geometry": { "type": "Point", "coordinates": [ 7.0910752, 50.7249999 ] } },
{ "type": "Feature", "id": "map — points_8274484464", "properties": { "address": null, "barrier": null, "highway": null, "is_in": null, "man_made": null, "name": "Lyra", "osm_id": "8274484464", "other_tags": "\"artist_name\"=>\"Ladis Schwartz\",\"artwork_type\"=>\"sculpture\",\"material\"=>\"bronze\",\"start_date\"=>\"1985\",\"tourism\"=>\"artwork\",\"wikimedia_commons\"=>\"File:2018-06-18-bonn-meckenheimer-allee-169-botanischer-garten-lyrabrunnen-07.jpg\"", "place": null, "ref": null, "source_layer": "map — points" }, "geometry": { "type": "Point", "coordinates": [ 7.0915373, 50.7246251 ] } },
{ "type": "Feature", "id": "map — points_8439140286", "properties": { "address": null, "barrier": null, "highway": null, "is_in": null, "man_made": null, "name": null, "osm_id": "8439140286", "other_tags": "\"natural\"=>\"tree\"", "place": null, "ref": null, "source_layer": "map — points" }, "geometry": { "type": "Point", "coordinates": [ 7.0919434, 50.7244302 ] } },
{ "type": "Feature", "id": "map — points_8439140287", "properties": { "address": null, "barrier": null, "highway": null, "is_in": null, "man_made": null, "name": null, "osm_id": "8439140287", "other_tags": "\"natural\"=>\"tree\"", "place": null, "ref": null, "source_layer": "map — points" }, "geometry": { "type": "Point", "coordinates": [ 7.0923602, 50.7246734 ] } },
{ "type": "Feature", "id": "map — points_8439140289", "properties": { "address": null, "barrier": null, "highway": null, "is_in": null, "man_made": null, "name": null, "osm_id": "8439140289", "other_tags": "\"natural\"=>\"tree\"", "place": null, "ref": null, "source_layer": "map — points" }, "geometry": { "type": "Point", "coordinates": [ 7.0922245, 50.7244698 ] } },
{ "type": "Feature", "id": "map — points_9249410143", "properties": { "address": null, "barrier": null, "highway": null, "is_in": null, "man_made": null, "name": "Lenné-Büste", "osm_id": "9249410143", "other_tags": "\"alt_name\"=>\"Peter-Joseph-Lenné-Denkmal\",\"artist_name\"=>\"Christian Daniel Rauch\",\"artist:wikidata\"=>\"Q714972\",\"artwork_subject\"=>\"Peter Joseph Lenné\",\"artwork_subject:wikidata\"=>\"Q65910\",\"historic\"=>\"memorial\",\"material\"=>\"marble\",\"memorial\"=>\"bust\",\"memorial:subject\"=>\"Peter Joseph Lenné\",\"memorial:subject:wikidata\"=>\"Q65910\",\"note:artist\"=>\"artist of the original, this is a replica\",\"wikimedia_commons\"=>\"Category:Lenné-Büste (Botanischer Garten, Bonn)\"", "place": null, "ref": null, "source_layer": "map — points" }, "geometry": { "type": "Point", "coordinates": [ 7.0910247, 50.7248746 ] } },
{ "type": "Feature", "id": "map — points_9769537371", "properties": { "address": null, "barrier": null, "highway": null, "is_in": null, "man_made": null, "name": null, "osm_id": "9769537371", "other_tags": "\"amenity\"=>\"bench\",\"backrest\"=>\"yes\",\"material\"=>\"wood\"", "place": null, "ref": null, "source_layer": "map — points" }, "geometry": { "type": "Point", "coordinates": [ 7.0917529, 50.7246124 ] } },
{ "type": "Feature", "id": "map — points_9769537372", "properties": { "address": null, "barrier": null, "highway": null, "is_in": null, "man_made": null, "name": null, "osm_id": "9769537372", "other_tags": "\"amenity\"=>\"bench\",\"backrest\"=>\"yes\",\"material\"=>\"wood\"", "place": null, "ref": null, "source_layer": "map — points" }, "geometry": { "type": "Point", "coordinates": [ 7.0916303, 50.7245172 ] } },
{ "type": "Feature", "id": "map — points_9769537373", "properties": { "address": null, "barrier": null, "highway": null, "is_in": null, "man_made": null, "name": null, "osm_id": "9769537373", "other_tags": "\"amenity\"=>\"bench\",\"backrest\"=>\"yes\",\"material\"=>\"wood\"", "place": null, "ref": null, "source_layer": "map — points" }, "geometry": { "type": "Point", "coordinates": [ 7.0914743, 50.7247496 ] } },
{ "type": "Feature", "id": "map — points_9769537374", "properties": { "address": null, "barrier": null, "highway": null, "is_in": null, "man_made": null, "name": null, "osm_id": "9769537374", "other_tags": "\"amenity\"=>\"bench\",\"backrest\"=>\"yes\",\"material\"=>\"wood\"", "place": null, "ref": null, "source_layer": "map — points" }, "geometry": { "type": "Point", "coordinates": [ 7.091356, 50.7246608 ] } },
{ "type": "Feature", "id": "map — points_12920938706", "properties": { "address": null, "barrier": "step", "highway": null, "is_in": null, "man_made": null, "name": null, "osm_id": "12920938706", "other_tags": null, "place": null, "ref": null, "source_layer": "map — points" }, "geometry": { "type": "Point", "coordinates": [ 7.091489, 50.7245872 ] } },
{ "type": "Feature", "id": "map — points_12920938707", "properties": { "address": null, "barrier": "step", "highway": null, "is_in": null, "man_made": null, "name": null, "osm_id": "12920938707", "other_tags": null, "place": null, "ref": null, "source_layer": "map — points" }, "geometry": { "type": "Point", "coordinates": [ 7.0917086, 50.7245746 ] } },
{ "type": "Feature", "id": "map — points_13997840517", "properties": { "address": null, "barrier": null, "highway": null, "is_in": null, "man_made": null, "name": null, "osm_id": "13997840517", "other_tags": "\"amenity\"=>\"waste_basket\"", "place": null, "ref": null, "source_layer": "map — points" }, "geometry": { "type": "Point", "coordinates": [ 7.0914616, 50.7244435 ] } },
{ "type": "Feature", "id": "map — points_13997848289", "properties": { "address": null, "barrier": null, "highway": null, "is_in": null, "man_made": null, "name": null, "osm_id": "13997848289", "other_tags": "\"amenity\"=>\"waste_basket\"", "place": null, "ref": null, "source_layer": "map — points" }, "geometry": { "type": "Point", "coordinates": [ 7.0912751, 50.7245358 ] } },
{ "type": "Feature", "id": "map — points_14161336100", "properties": { "address": null, "barrier": null, "highway": null, "is_in": null, "man_made": null, "name": null, "osm_id": "14161336100", "other_tags": "\"entrance\"=>\"yes\"", "place": null, "ref": null, "source_layer": "map — points" }, "geometry": { "type": "Point", "coordinates": [ 7.0913193, 50.7244997 ] } },
{ "type": "Feature", "id": "map — points_14161345901", "properties": { "address": null, "barrier": null, "highway": null, "is_in": null, "man_made": null, "name": null, "osm_id": "14161345901", "other_tags": "\"entrance\"=>\"yes\"", "place": null, "ref": null, "source_layer": "map — points" }, "geometry": { "type": "Point", "coordinates": [ 7.0913742, 50.7244705 ] } },
{ "type": "Feature", "id": "map — points_14161345902", "properties": { "address": null, "barrier": null, "highway": null, "is_in": null, "man_made": null, "name": null, "osm_id": "14161345902", "other_tags": "\"entrance\"=>\"yes\"", "place": null, "ref": null, "source_layer": "map — points" }, "geometry": { "type": "Point", "coordinates": [ 7.0910607, 50.7241483 ] } },
{ "type": "Feature", "id": "map — points_14161345903", "properties": { "address": null, "barrier": null, "highway": null, "is_in": null, "man_made": null, "name": null, "osm_id": "14161345903", "other_tags": "\"entrance\"=>\"yes\"", "place": null, "ref": null, "source_layer": "map — points" }, "geometry": { "type": "Point", "coordinates": [ 7.091239, 50.7243873 ] } },
{ "type": "Feature", "id": "map — points_14161345906", "properties": { "address": null, "barrier": null, "highway": null, "is_in": null, "man_made": null, "name": null, "osm_id": "14161345906", "other_tags": "\"entrance\"=>\"yes\"", "place": null, "ref": null, "source_layer": "map — points" }, "geometry": { "type": "Point", "coordinates": [ 7.0911281, 50.7244584 ] } },
{ "type": "Feature", "id": "map — points_14161345907", "properties": { "address": null, "barrier": null, "highway": null, "is_in": null, "man_made": null, "name": null, "osm_id": "14161345907", "other_tags": "\"entrance\"=>\"yes\"", "place": null, "ref": null, "source_layer": "map — points" }, "geometry": { "type": "Point", "coordinates": [ 7.0913811, 50.7243265 ] } },
{ "type": "Feature", "id": "map — points_14161345908", "properties": { "address": null, "barrier": null, "highway": null, "is_in": null, "man_made": null, "name": null, "osm_id": "14161345908", "other_tags": "\"entrance\"=>\"yes\"", "place": null, "ref": null, "source_layer": "map — points" }, "geometry": { "type": "Point", "coordinates": [ 7.0913434, 50.7243716 ] } },
{ "type": "Feature", "id": "map — points_14161345947", "properties": { "address": null, "barrier": null, "highway": null, "is_in": null, "man_made": null, "name": null, "osm_id": "14161345947", "other_tags": "\"natural\"=>\"tree\"", "place": null, "ref": null, "source_layer": "map — points" }, "geometry": { "type": "Point", "coordinates": [ 7.0914271, 50.7249735 ] } },
{ "type": "Feature", "id": "map — points_14161345980", "properties": { "address": null, "barrier": null, "highway": null, "is_in": null, "man_made": null, "name": null, "osm_id": "14161345980", "other_tags": "\"natural\"=>\"tree\"", "place": null, "ref": null, "source_layer": "map — points" }, "geometry": { "type": "Point", "coordinates": [ 7.0918529, 50.7247235 ] } },
{ "type": "Feature", "id": "map — points_14161345981", "properties": { "address": null, "barrier": null, "highway": null, "is_in": null, "man_made": null, "name": null, "osm_id": "14161345981", "other_tags": "\"natural\"=>\"tree\"", "place": null, "ref": null, "source_layer": "map — points" }, "geometry": { "type": "Point", "coordinates": [ 7.0920428, 50.7246263 ] } },
{ "type": "Feature", "id": "map — lines_50175250", "properties": { "barrier": null, "highway": "service", "man_made": null, "name": null, "osm_id": "50175250", "other_tags": "\"surface\"=>\"fine_gravel\",\"width\"=>\"2.5\"", "source_layer": "map — lines", "aerialway": null, "waterway": null, "z_order": 0 }, "bbox": [ 7.0910838, 50.7243522, 7.0917371, 50.7248147 ], "geometry": { "type": "LineString", "coordinates": [ [ 7.0917371, 50.7243522 ], [ 7.0917341, 50.7243735 ], [ 7.0917265, 50.7243904 ], [ 7.0917023, 50.7244105 ], [ 7.0916264, 50.7244519 ], [ 7.0914402, 50.7245474 ], [ 7.0912588, 50.724644 ], [ 7.0912462, 50.724651 ], [ 7.0911974, 50.7246841 ], [ 7.0911507, 50.7247233 ], [ 7.0911031, 50.7247737 ], [ 7.0910838, 50.7248147 ] ] } },
{ "type": "Feature", "id": "map — lines_142945658", "properties": { "barrier": null, "highway": "footway", "man_made": null, "name": "Ferdinand-Weg", "osm_id": "142945658", "other_tags": "\"lit\"=>\"no\",\"surface\"=>\"fine_gravel\"", "source_layer": "map — lines", "aerialway": null, "waterway": null, "z_order": 0 }, "bbox": [ 7.0911064, 50.7248881, 7.0912222, 50.7249798 ], "geometry": { "type": "LineString", "coordinates": [ [ 7.0911064, 50.7248881 ], [ 7.0912222, 50.7249798 ] ] } },
{ "type": "Feature", "id": "map — lines_142945659", "properties": { "barrier": null, "highway": "footway", "man_made": null, "name": "Ferdinand-Weg", "osm_id": "142945659", "other_tags": "\"access\"=>\"permissive\",\"bicycle\"=>\"no\",\"surface\"=>\"sett\",\"width\"=>\"3.5\"", "source_layer": "map — lines", "aerialway": null, "waterway": null, "z_order": 0 }, "bbox": [ 7.0909772, 50.7249277, 7.0910236, 50.724954 ], "geometry": { "type": "LineString", "coordinates": [ [ 7.0910236, 50.7249277 ], [ 7.0909772, 50.724954 ] ] } },
{ "type": "Feature", "id": "map — lines_142945660", "properties": { "barrier": null, "highway": "footway", "man_made": null, "name": "Ferdinand-Weg", "osm_id": "142945660", "other_tags": "\"smoothness\"=>\"intermediate\",\"surface\"=>\"gravel\",\"width\"=>\"2.5\"", "source_layer": "map — lines", "aerialway": null, "waterway": null, "z_order": 0 }, "bbox": [ 7.0912222, 50.7249798, 7.0912947, 50.7250431 ], "geometry": { "type": "LineString", "coordinates": [ [ 7.0912947, 50.7250431 ], [ 7.0912878, 50.7250375 ], [ 7.0912588, 50.725012 ], [ 7.0912222, 50.7249798 ] ] } },
{ "type": "Feature", "id": "map — lines_142945662", "properties": { "barrier": null, "highway": "service", "man_made": null, "name": "Ferdinand-Weg", "osm_id": "142945662", "other_tags": "\"oneway\"=>\"no\",\"surface\"=>\"paving_stones\",\"width\"=>\"2.5\"", "source_layer": "map — lines", "aerialway": null, "waterway": null, "z_order": 0 }, "bbox": [ 7.0909859, 50.7247381, 7.0910838, 50.7248147 ], "geometry": { "type": "LineString", "coordinates": [ [ 7.0909859, 50.7247381 ], [ 7.0910838, 50.7248147 ] ] } },
{ "type": "Feature", "id": "map — lines_142945666", "properties": { "barrier": null, "highway": "footway", "man_made": null, "name": "Hanstein-Weg", "osm_id": "142945666", "other_tags": "\"lit\"=>\"no\",\"surface\"=>\"fine_gravel\",\"width\"=>\"2.5\"", "source_layer": "map — lines", "aerialway": null, "waterway": null, "z_order": 0 }, "bbox": [ 7.0923383, 50.7245232, 7.0924116, 50.7245624 ], "geometry": { "type": "LineString", "coordinates": [ [ 7.0924116, 50.7245232 ], [ 7.0923383, 50.7245624 ] ] } },
{ "type": "Feature", "id": "map — lines_142945672", "properties": { "barrier": null, "highway": "footway", "man_made": null, "name": "Lenné-Weg", "osm_id": "142945672", "other_tags": "\"lit\"=>\"no\",\"surface\"=>\"fine_gravel\",\"width\"=>\"2.5\"", "source_layer": "map — lines", "aerialway": null, "waterway": null, "z_order": 0 }, "bbox": [ 7.0921304, 50.7245142, 7.0924077, 50.7246177 ], "geometry": { "type": "LineString", "coordinates": [ [ 7.0921304, 50.7245142 ], [ 7.0921843, 50.7245286 ], [ 7.0922768, 50.7245507 ], [ 7.0923383, 50.7245624 ], [ 7.0924077, 50.7246177 ] ] } },
{ "type": "Feature", "id": "map — lines_142945721", "properties": { "barrier": null, "highway": "footway", "man_made": null, "name": null, "osm_id": "142945721", "other_tags": "\"lit\"=>\"no\",\"surface\"=>\"paving_stones\",\"width\"=>\"2.5\"", "source_layer": "map — lines", "aerialway": null, "waterway": null, "z_order": 0 }, "bbox": [ 7.0916088, 50.7246794, 7.0916372, 50.7247026 ], "geometry": { "type": "LineString", "coordinates": [ [ 7.0916372, 50.7247026 ], [ 7.0916088, 50.7246794 ] ] } },
{ "type": "Feature", "id": "map — lines_142945725", "properties": { "barrier": null, "highway": "footway", "man_made": null, "name": null, "osm_id": "142945725", "other_tags": "\"lit\"=>\"no\",\"smoothness\"=>\"intermediate\",\"surface\"=>\"fine_gravel\",\"width\"=>\"2.5\"", "source_layer": "map — lines", "aerialway": null, "waterway": null, "z_order": 0 }, "bbox": [ 7.0913904, 50.7245053, 7.0914659, 50.7245684 ], "geometry": { "type": "LineString", "coordinates": [ [ 7.0914659, 50.7245684 ], [ 7.0914402, 50.7245474 ], [ 7.0913904, 50.7245053 ] ] } },
{ "type": "Feature", "id": "map — lines_142945726", "properties": { "barrier": null, "highway": "footway", "man_made": null, "name": null, "osm_id": "142945726", "other_tags": "\"lit\"=>\"no\",\"surface\"=>\"fine_gravel\",\"width\"=>\"2.5\"", "source_layer": "map — lines", "aerialway": null, "waterway": null, "z_order": 0 }, "bbox": [ 7.0916264, 50.7244519, 7.0918293, 50.7246115 ], "geometry": { "type": "LineString", "coordinates": [ [ 7.0918293, 50.7246115 ], [ 7.091752, 50.7245532 ], [ 7.0916264, 50.7244519 ] ] } },
{ "type": "Feature", "id": "map — lines_142945732", "properties": { "barrier": null, "highway": "footway", "man_made": null, "name": null, "osm_id": "142945732", "other_tags": "\"access\"=>\"permissive\",\"lit\"=>\"no\",\"surface\"=>\"fine_gravel\",\"width\"=>\"2.5\"", "source_layer": "map — lines", "aerialway": null, "waterway": null, "z_order": 0 }, "bbox": [ 7.0912588, 50.724644, 7.0914585, 50.7248068 ], "geometry": { "type": "LineString", "coordinates": [ [ 7.0914585, 50.7248068 ], [ 7.0913765, 50.7247426 ], [ 7.0912588, 50.724644 ] ] } },
{ "type": "Feature", "id": "map — lines_142945734", "properties": { "barrier": null, "highway": "footway", "man_made": null, "name": null, "osm_id": "142945734", "other_tags": "\"access\"=>\"permissive\",\"lit\"=>\"no\",\"smoothness\"=>\"intermediate\",\"surface\"=>\"compacted\",\"width\"=>\"2.5\"", "source_layer": "map — lines", "aerialway": null, "waterway": null, "z_order": 0 }, "bbox": [ 7.0917407, 50.724477, 7.0918932, 50.7245588 ], "geometry": { "type": "LineString", "coordinates": [ [ 7.0917407, 50.7245588 ], [ 7.091752, 50.7245532 ], [ 7.0918932, 50.724477 ] ] } },
{ "type": "Feature", "id": "map — lines_142945735", "properties": { "barrier": null, "highway": "footway", "man_made": null, "name": null, "osm_id": "142945735", "other_tags": "\"lit\"=>\"no\",\"surface\"=>\"fine_gravel\",\"width\"=>\"2.5\"", "source_layer": "map — lines", "aerialway": null, "waterway": null, "z_order": 0 }, "bbox": [ 7.0911064, 50.7247426, 7.0913765, 50.7248881 ], "geometry": { "type": "LineString", "coordinates": [ [ 7.0911064, 50.7248881 ], [ 7.09118, 50.7248431 ], [ 7.0913765, 50.7247426 ] ] } },
{ "type": "Feature", "id": "map — lines_142945738", "properties": { "barrier": null, "highway": "footway", "man_made": null, "name": null, "osm_id": "142945738", "other_tags": "\"lit\"=>\"no\",\"smoothness\"=>\"intermediate\",\"surface\"=>\"fine_gravel\",\"width\"=>\"2.5\"", "source_layer": "map — lines", "aerialway": null, "waterway": null, "z_order": 0 }, "bbox": [ 7.0917371, 50.7242936, 7.0921304, 50.7245372 ], "geometry": { "type": "LineString", "coordinates": [ [ 7.0917371, 50.7243522 ], [ 7.0918665, 50.7242936 ], [ 7.0919788, 50.7243895 ], [ 7.0921304, 50.7245142 ], [ 7.0920714, 50.7245372 ] ] } },
{ "type": "Feature", "id": "map — lines_142945741", "properties": { "barrier": null, "highway": "footway", "man_made": null, "name": null, "osm_id": "142945741", "other_tags": "\"lit\"=>\"no\",\"sloped_curb\"=>\"0.06\",\"smoothness\"=>\"good\",\"surface\"=>\"paving_stones\",\"width\"=>\"2.0\"", "source_layer": "map — lines", "aerialway": null, "waterway": null, "z_order": 0 }, "bbox": [ 7.0913707, 50.7245268, 7.0917324, 50.7247448 ], "geometry": { "type": "LineString", "coordinates": [ [ 7.0916088, 50.7246794 ], [ 7.0917324, 50.7246132 ], [ 7.0916956, 50.724581 ], [ 7.0916252, 50.7245268 ], [ 7.0914986, 50.7245951 ], [ 7.0913707, 50.7246611 ], [ 7.091437, 50.7247114 ], [ 7.091482, 50.7247448 ], [ 7.0916088, 50.7246794 ] ] } },
{ "type": "Feature", "id": "map — lines_142945742", "properties": { "barrier": null, "highway": "footway", "man_made": null, "name": null, "osm_id": "142945742", "other_tags": "\"lit\"=>\"no\",\"surface\"=>\"fine_gravel\",\"width\"=>\"2.5\"", "source_layer": "map — lines", "aerialway": null, "waterway": null, "z_order": 0 }, "bbox": [ 7.0912222, 50.7243522, 7.0920084, 50.7249798 ], "geometry": { "type": "LineString", "coordinates": [ [ 7.0912222, 50.7249798 ], [ 7.0914357, 50.7248687 ], [ 7.0914953, 50.7248377 ], [ 7.0914585, 50.7248068 ], [ 7.0916463, 50.7247102 ], [ 7.0918293, 50.7246115 ], [ 7.0918648, 50.7246372 ], [ 7.0920084, 50.7245673 ], [ 7.0918932, 50.724477 ], [ 7.0917371, 50.7243522 ] ] } },
{ "type": "Feature", "id": "map — lines_885917794", "properties": { "barrier": "hedge", "highway": null, "man_made": null, "name": null, "osm_id": "885917794", "other_tags": null, "source_layer": "map — lines", "aerialway": null, "waterway": null, "z_order": 0 }, "bbox": [ 7.0914356, 50.7247142, 7.0915865, 50.7247733 ], "geometry": { "type": "LineString", "coordinates": [ [ 7.0915865, 50.7247142 ], [ 7.0914708, 50.7247733 ], [ 7.0914356, 50.7247456 ] ] } },
{ "type": "Feature", "id": "map — lines_885917795", "properties": { "barrier": "hedge", "highway": null, "man_made": null, "name": null, "osm_id": "885917795", "other_tags": null, "source_layer": "map — lines", "aerialway": null, "waterway": null, "z_order": 0 }, "bbox": [ 7.0916736, 50.7245841, 7.0917824, 50.7246699 ], "geometry": { "type": "LineString", "coordinates": [ [ 7.0916736, 50.7246699 ], [ 7.0917824, 50.7246111 ], [ 7.0917468, 50.7245841 ] ] } },
{ "type": "Feature", "id": "map — lines_885917796", "properties": { "barrier": "hedge", "highway": null, "man_made": null, "name": null, "osm_id": "885917796", "other_tags": null, "source_layer": "map — lines", "aerialway": null, "waterway": null, "z_order": 0 }, "bbox": [ 7.0915267, 50.7244981, 7.0916962, 50.7245532 ], "geometry": { "type": "LineString", "coordinates": [ [ 7.0916962, 50.7245467 ], [ 7.0916343, 50.7244981 ], [ 7.0915267, 50.7245532 ] ] } },
{ "type": "Feature", "id": "map — lines_885917797", "properties": { "barrier": "hedge", "highway": null, "man_made": null, "name": null, "osm_id": "885917797", "other_tags": null, "source_layer": "map — lines", "aerialway": null, "waterway": null, "z_order": 0 }, "bbox": [ 7.091324, 50.7245983, 7.0914354, 50.7247063 ], "geometry": { "type": "LineString", "coordinates": [ [ 7.0913861, 50.7247063 ], [ 7.091324, 50.724659 ], [ 7.0914354, 50.7245983 ] ] } },
{ "type": "Feature", "id": "map — lines_885931720", "properties": { "barrier": null, "highway": "footway", "man_made": null, "name": null, "osm_id": "885931720", "other_tags": "\"lit\"=>\"no\",\"surface\"=>\"fine_gravel\"", "source_layer": "map — lines", "aerialway": null, "waterway": null, "z_order": 0 }, "bbox": [ 7.0922379, 50.7245624, 7.0923383, 50.7246734 ], "geometry": { "type": "LineString", "coordinates": [ [ 7.0923383, 50.7245624 ], [ 7.0923153, 50.7245874 ], [ 7.0922962, 50.7246145 ], [ 7.0922822, 50.7246412 ], [ 7.0922751, 50.7246517 ], [ 7.092264, 50.7246622 ], [ 7.0922379, 50.7246734 ] ] } },
{ "type": "Feature", "id": "map — lines_1063592843", "properties": { "barrier": null, "highway": "footway", "man_made": null, "name": null, "osm_id": "1063592843", "other_tags": "\"handrail\"=>\"both\",\"surface\"=>\"woodchips\",\"width\"=>\"1.5\"", "source_layer": "map — lines", "aerialway": null, "waterway": null, "z_order": 0 }, "bbox": [ 7.0920564, 50.7242987, 7.0924193, 50.7243681 ], "geometry": { "type": "LineString", "coordinates": [ [ 7.0924193, 50.7243341 ], [ 7.0924127, 50.7243352 ], [ 7.0924017, 50.7243462 ], [ 7.0923969, 50.7243526 ], [ 7.0923914, 50.7243591 ], [ 7.0923859, 50.7243621 ], [ 7.0923726, 50.7243681 ], [ 7.0923576, 50.7243676 ], [ 7.0923403, 50.7243651 ], [ 7.0923309, 50.7243611 ], [ 7.0923144, 50.7243536 ], [ 7.0923104, 50.7243477 ], [ 7.0922994, 50.7243387 ], [ 7.0922876, 50.7243332 ], [ 7.0922711, 50.7243297 ], [ 7.0922546, 50.7243283 ], [ 7.0922436, 50.7243283 ], [ 7.0922278, 50.7243278 ], [ 7.0922035, 50.7243278 ], [ 7.0921862, 50.7243297 ], [ 7.0921728, 50.7243317 ], [ 7.0921579, 50.7243322 ], [ 7.0921468, 50.7243312 ], [ 7.0921327, 50.7243307 ], [ 7.0921177, 50.7243273 ], [ 7.0921059, 50.7243243 ], [ 7.0920886, 50.7243193 ], [ 7.0920564, 50.7242987 ] ] } },
{ "type": "Feature", "id": "map — lines_1184445244", "properties": { "barrier": null, "highway": "service", "man_made": null, "name": "Ferdinand-Weg", "osm_id": "1184445244", "other_tags": "\"surface\"=>\"fine_gravel\",\"width\"=>\"2.5\"", "source_layer": "map — lines", "aerialway": null, "waterway": null, "z_order": 0 }, "bbox": [ 7.0910838, 50.7248147, 7.0911064, 50.7248881 ], "geometry": { "type": "LineString", "coordinates": [ [ 7.0910838, 50.7248147 ], [ 7.0910916, 50.7248505 ], [ 7.0911064, 50.7248881 ] ] } },
{ "type": "Feature", "id": "map — lines_1184445383", "properties": { "barrier": null, "highway": "footway", "man_made": null, "name": null, "osm_id": "1184445383", "other_tags": "\"lit\"=>\"no\",\"surface\"=>\"paving_stones\",\"width\"=>\"2.5\"", "source_layer": "map — lines", "aerialway": null, "waterway": null, "z_order": 0 }, "bbox": [ 7.0913954, 50.7247114, 7.091437, 50.7247328 ], "geometry": { "type": "LineString", "coordinates": [ [ 7.0913954, 50.7247328 ], [ 7.091437, 50.7247114 ] ] } },
{ "type": "Feature", "id": "map — lines_1185590136", "properties": { "barrier": null, "highway": "footway", "man_made": null, "name": null, "osm_id": "1185590136", "other_tags": "\"lit\"=>\"no\",\"surface\"=>\"fine_gravel\",\"width\"=>\"2.5\"", "source_layer": "map — lines", "aerialway": null, "waterway": null, "z_order": 0 }, "bbox": [ 7.0920084, 50.7245457, 7.0920536, 50.7245673 ], "geometry": { "type": "LineString", "coordinates": [ [ 7.0920536, 50.7245457 ], [ 7.0920084, 50.7245673 ] ] } },
{ "type": "Feature", "id": "map — lines_1185590137", "properties": { "barrier": null, "highway": "steps", "man_made": null, "name": null, "osm_id": "1185590137", "other_tags": "\"handrail\"=>\"no\",\"incline\"=>\"up\",\"lit\"=>\"no\",\"ramp\"=>\"no\",\"step_count\"=>\"4\",\"surface\"=>\"sett\",\"tactile_paving\"=>\"no\",\"width\"=>\"2.5\"", "source_layer": "map — lines", "aerialway": null, "waterway": null, "z_order": 0 }, "bbox": [ 7.0920536, 50.7245372, 7.0920714, 50.7245457 ], "geometry": { "type": "LineString", "coordinates": [ [ 7.0920714, 50.7245372 ], [ 7.0920536, 50.7245457 ] ] } },
{ "type": "Feature", "id": "map — lines_1355429663", "properties": { "barrier": null, "highway": null, "man_made": null, "name": "Farnhaus", "osm_id": "1355429663", "other_tags": "\"building:part\"=>\"yes\"", "source_layer": "map — lines", "aerialway": null, "waterway": null, "z_order": 0 }, "bbox": [ 7.0909945, 50.7244356, 7.0910675, 50.7245274 ], "geometry": { "type": "MultiLineString", "coordinates": [ [ [ 7.0910675, 50.7244896 ], [ 7.0909945, 50.7245274 ] ], [ [ 7.0909982, 50.7244356 ], [ 7.0910675, 50.7244896 ] ] ] } },
{ "type": "Feature", "id": "map — lines_1395930672", "properties": { "barrier": null, "highway": "footway", "man_made": null, "name": null, "osm_id": "1395930672", "other_tags": "\"lit\"=>\"no\",\"smoothness\"=>\"intermediate\",\"surface\"=>\"paving_stones\",\"width\"=>\"2.5\"", "source_layer": "map — lines", "aerialway": null, "waterway": null, "z_order": 0 }, "bbox": [ 7.0914659, 50.7245684, 7.0914986, 50.7245951 ], "geometry": { "type": "LineString", "coordinates": [ [ 7.0914986, 50.7245951 ], [ 7.091489, 50.7245872 ], [ 7.0914659, 50.7245684 ] ] } },
{ "type": "Feature", "id": "map — lines_1395930673", "properties": { "barrier": null, "highway": "footway", "man_made": null, "name": null, "osm_id": "1395930673", "other_tags": "\"access\"=>\"permissive\",\"lit\"=>\"no\",\"smoothness\"=>\"intermediate\",\"surface\"=>\"paving_stones\",\"width\"=>\"2.5\"", "source_layer": "map — lines", "aerialway": null, "waterway": null, "z_order": 0 }, "bbox": [ 7.0916956, 50.7245588, 7.0917407, 50.724581 ], "geometry": { "type": "LineString", "coordinates": [ [ 7.0916956, 50.724581 ], [ 7.0917086, 50.7245746 ], [ 7.0917407, 50.7245588 ] ] } },
{ "type": "Feature", "id": "map — lines_1395930674", "properties": { "barrier": null, "highway": "footway", "man_made": null, "name": null, "osm_id": "1395930674", "other_tags": "\"lit\"=>\"no\",\"surface\"=>\"compacted\",\"width\"=>\"2.5\"", "source_layer": "map — lines", "aerialway": null, "waterway": null, "z_order": 0 }, "bbox": [ 7.0913765, 50.7247328, 7.0913954, 50.7247426 ], "geometry": { "type": "LineString", "coordinates": [ [ 7.0913765, 50.7247426 ], [ 7.0913954, 50.7247328 ] ] } },
{ "type": "Feature", "id": "map — lines_1395930675", "properties": { "barrier": null, "highway": "footway", "man_made": null, "name": null, "osm_id": "1395930675", "other_tags": "\"lit\"=>\"no\",\"surface\"=>\"compacted\",\"width\"=>\"2.5\"", "source_layer": "map — lines", "aerialway": null, "waterway": null, "z_order": 0 }, "bbox": [ 7.0916372, 50.7247026, 7.0916463, 50.7247102 ], "geometry": { "type": "LineString", "coordinates": [ [ 7.0916463, 50.7247102 ], [ 7.0916372, 50.7247026 ] ] } },
{ "type": "Feature", "id": "map — lines_1395930676", "properties": { "barrier": null, "highway": "footway", "man_made": null, "name": "Ferdinand-Weg", "osm_id": "1395930676", "other_tags": "\"access\"=>\"permissive\",\"bicycle\"=>\"no\",\"surface\"=>\"compacted\",\"width\"=>\"3.5\"", "source_layer": "map — lines", "aerialway": null, "waterway": null, "z_order": 0 }, "bbox": [ 7.0910236, 50.7248881, 7.0911064, 50.7249277 ], "geometry": { "type": "LineString", "coordinates": [ [ 7.0911064, 50.7248881 ], [ 7.0910236, 50.7249277 ] ] } },
{ "type": "Feature", "id": "map — lines_1557193049", "properties": { "barrier": null, "highway": "path", "man_made": null, "name": null, "osm_id": "1557193049", "other_tags": null, "source_layer": "map — lines", "aerialway": null, "waterway": null, "z_order": 0 }, "bbox": [ 7.0912926, 50.7247268, 7.0916752, 50.7249963 ], "geometry": { "type": "LineString", "coordinates": [ [ 7.0916699, 50.7247268 ], [ 7.0916752, 50.7247304 ], [ 7.0916543, 50.7247428 ], [ 7.0916469, 50.7247497 ], [ 7.0916491, 50.7247589 ], [ 7.0916559, 50.7247703 ], [ 7.0916635, 50.7247883 ], [ 7.0916649, 50.7247984 ], [ 7.0916483, 50.7248006 ], [ 7.0916233, 50.7248067 ], [ 7.0915997, 50.7248155 ], [ 7.0915776, 50.7248291 ], [ 7.0915568, 50.7248423 ], [ 7.0915304, 50.7248607 ], [ 7.0914922, 50.7248858 ], [ 7.0914694, 50.7248954 ], [ 7.0914458, 50.7249085 ], [ 7.0914188, 50.7249151 ], [ 7.0913744, 50.7249279 ], [ 7.091355, 50.7249366 ], [ 7.0913301, 50.7249516 ], [ 7.091312, 50.7249739 ], [ 7.0912926, 50.7249963 ] ] } },
{ "type": "Feature", "id": "map — lines_1557193050", "properties": { "barrier": null, "highway": "path", "man_made": null, "name": null, "osm_id": "1557193050", "other_tags": null, "source_layer": "map — lines", "aerialway": null, "waterway": null, "z_order": 0 }, "bbox": [ 7.0912588, 50.7250021, 7.0912802, 50.725012 ], "geometry": { "type": "LineString", "coordinates": [ [ 7.0912802, 50.7250021 ], [ 7.0912588, 50.725012 ] ] } },
{ "type": "Feature", "id": "map — lines_1557193051", "properties": { "barrier": null, "highway": "steps", "man_made": null, "name": null, "osm_id": "1557193051", "other_tags": null, "source_layer": "map — lines", "aerialway": null, "waterway": null, "z_order": 0 }, "bbox": [ 7.0912802, 50.7249963, 7.0912926, 50.7250021 ], "geometry": { "type": "LineString", "coordinates": [ [ 7.0912926, 50.7249963 ], [ 7.0912802, 50.7250021 ] ] } },
{ "type": "Feature", "id": "map — lines_1557193052", "properties": { "barrier": null, "highway": "steps", "man_made": null, "name": null, "osm_id": "1557193052", "other_tags": null, "source_layer": "map — lines", "aerialway": null, "waterway": null, "z_order": 0 }, "bbox": [ 7.0916463, 50.7247102, 7.0916699, 50.7247268 ], "geometry": { "type": "LineString", "coordinates": [ [ 7.0916463, 50.7247102 ], [ 7.0916699, 50.7247268 ] ] } },
{ "type": "Feature", "id": "map — lines_1557193053", "properties": { "barrier": null, "highway": "path", "man_made": null, "name": null, "osm_id": "1557193053", "other_tags": null, "source_layer": "map — lines", "aerialway": null, "waterway": null, "z_order": 0 }, "bbox": [ 7.0916649, 50.7247141, 7.0918095, 50.7248317 ], "geometry": { "type": "LineString", "coordinates": [ [ 7.0916752, 50.7247304 ], [ 7.091701, 50.7247172 ], [ 7.0917162, 50.7247141 ], [ 7.091744, 50.7247211 ], [ 7.0917835, 50.7247438 ], [ 7.0918095, 50.7247699 ], [ 7.0918049, 50.7247863 ], [ 7.0917592, 50.7248173 ], [ 7.0917266, 50.7248317 ], [ 7.0917093, 50.7248295 ], [ 7.0916649, 50.7247984 ] ] } },
{ "type": "Feature", "id": "map — lines_1557193054", "properties": { "barrier": null, "highway": "path", "man_made": null, "name": null, "osm_id": "1557193054", "other_tags": null, "source_layer": "map — lines", "aerialway": null, "waterway": null, "z_order": 0 }, "bbox": [ 7.0914458, 50.7248295, 7.0917093, 50.7249479 ], "geometry": { "type": "LineString", "coordinates": [ [ 7.0917093, 50.7248295 ], [ 7.0916816, 50.7248392 ], [ 7.091642, 50.7248589 ], [ 7.0915623, 50.7249015 ], [ 7.0914892, 50.7249462 ], [ 7.0914708, 50.7249479 ], [ 7.0914542, 50.7249393 ], [ 7.0914458, 50.7249085 ] ] } },
{ "type": "Feature", "id": "map — lines_1557193055", "properties": { "barrier": null, "highway": "path", "man_made": null, "name": null, "osm_id": "1557193055", "other_tags": null, "source_layer": "map — lines", "aerialway": null, "waterway": null, "z_order": 0 }, "bbox": [ 7.0914535, 50.7248822, 7.0914694, 50.7248954 ], "geometry": { "type": "LineString", "coordinates": [ [ 7.0914694, 50.7248954 ], [ 7.0914535, 50.7248822 ] ] } },
{ "type": "Feature", "id": "map — lines_1557193056", "properties": { "barrier": null, "highway": "steps", "man_made": null, "name": null, "osm_id": "1557193056", "other_tags": null, "source_layer": "map — lines", "aerialway": null, "waterway": null, "z_order": 0 }, "bbox": [ 7.0914357, 50.7248687, 7.0914535, 50.7248822 ], "geometry": { "type": "LineString", "coordinates": [ [ 7.0914535, 50.7248822 ], [ 7.0914357, 50.7248687 ] ] } },
{ "type": "Feature", "id": "map — lines_1557193057", "properties": { "barrier": null, "highway": "path", "man_made": null, "name": null, "osm_id": "1557193057", "other_tags": null, "source_layer": "map — lines", "aerialway": null, "waterway": null, "z_order": 0 }, "bbox": [ 7.0915377, 50.7247589, 7.0916491, 50.7248423 ], "geometry": { "type": "LineString", "coordinates": [ [ 7.0915568, 50.7248423 ], [ 7.0915457, 50.7248319 ], [ 7.0915387, 50.724819 ], [ 7.0915377, 50.7248067 ], [ 7.0915507, 50.7247934 ], [ 7.0915726, 50.7247805 ], [ 7.091596, 50.7247701 ], [ 7.0916279, 50.7247616 ], [ 7.0916491, 50.7247589 ] ] } },
{ "type": "Feature", "id": "map — lines_1557193058", "properties": { "barrier": null, "highway": "path", "man_made": null, "name": null, "osm_id": "1557193058", "other_tags": null, "source_layer": "map — lines", "aerialway": null, "waterway": null, "z_order": 0 }, "bbox": [ 7.091744, 50.724659, 7.0918537, 50.7247438 ], "geometry": { "type": "LineString", "coordinates": [ [ 7.091744, 50.7247211 ], [ 7.091751, 50.7247035 ], [ 7.091761, 50.7246839 ], [ 7.0917705, 50.7246749 ], [ 7.0917879, 50.7246672 ], [ 7.0918176, 50.724659 ], [ 7.0918343, 50.7246596 ], [ 7.0918457, 50.7246666 ], [ 7.0918537, 50.7246745 ], [ 7.0918383, 50.7246858 ], [ 7.0918228, 50.7247038 ], [ 7.0918044, 50.7247259 ], [ 7.0917835, 50.7247438 ] ] } },
{ "type": "Feature", "id": "map — lines_1557193059", "properties": { "barrier": null, "highway": "path", "man_made": null, "name": null, "osm_id": "1557193059", "other_tags": null, "source_layer": "map — lines", "aerialway": null, "waterway": null, "z_order": 0 }, "bbox": [ 7.0918095, 50.7246312, 7.0920437, 50.7247699 ], "geometry": { "type": "LineString", "coordinates": [ [ 7.0918095, 50.7247699 ], [ 7.0918346, 50.7247578 ], [ 7.0918775, 50.7247329 ], [ 7.0918944, 50.7247209 ], [ 7.0919159, 50.7247101 ], [ 7.0919832, 50.7246838 ], [ 7.0920369, 50.7246621 ], [ 7.0920437, 50.7246498 ], [ 7.0920278, 50.7246316 ], [ 7.0919995, 50.7246312 ], [ 7.0919488, 50.7246461 ], [ 7.0919054, 50.7246593 ], [ 7.0918537, 50.7246745 ] ] } },
{ "type": "Feature", "id": "map — multipolygons_1934665", "properties": { "barrier": null, "man_made": null, "name": "Poppelsdorfer Schloss", "osm_id": "1934665", "other_tags": "\"addr:city\"=>\"Bonn\",\"addr:country\"=>\"DE\",\"addr:housenumber\"=>\"169\",\"addr:postcode\"=>\"53115\",\"addr:street\"=>\"Meckenheimer Allee\",\"architect\"=>\"Robert de Cotte\",\"architect:wikidata\"=>\"Q568839\",\"building:architecture\"=>\"baroque\",\"building:colour\"=>\"yellow\",\"building:levels\"=>\"2\",\"castle_type\"=>\"stately\",\"height\"=>\"14.5\",\"heritage\"=>\"8\",\"heritage:operator\"=>\"UntereDenkmalbehörde\",\"heritage:ref\"=>\"A 472\",\"loc_name\"=>\"Poppelsdorfer Schloss\",\"name:de\"=>\"Poppelsdorfer Schloss\",\"name:en\"=>\"Poppelsdorf Palace\",\"name:tr\"=>\"Poppelsdorf Köşkü\",\"old_name\"=>\"Schloss Clemensruhe\",\"roof:colour\"=>\"black\",\"roof:levels\"=>\"1\",\"roof:shape\"=>\"mansard\",\"start_date\"=>\"1715 / 1740\",\"wheelchair\"=>\"limited\",\"wikidata\"=>\"Q884433\",\"wikimedia_commons\"=>\"Category:Poppelsdorfer Schloss\",\"wikipedia\"=>\"de:Poppelsdorfer Schloss\"", "place": null, "source_layer": "map — multipolygons", "admin_level": null, "aeroway": null, "amenity": null, "boundary": null, "building": "yes", "craft": null, "geological": null, "historic": "yes", "land_area": null, "landuse": null, "leisure": null, "military": null, "natural": null, "office": null, "osm_way_id": null, "shop": null, "sport": null, "tourism": "attraction", "type": "multipolygon" }, "bbox": [ 7.0914079, 50.7246288, 7.0923998, 50.725061 ], "geometry": { "type": "Polygon", "coordinates": [ [ [ 7.0923897, 50.725061 ], [ 7.0923547, 50.7250604 ], [ 7.0923531, 50.7250477 ], [ 7.0923463, 50.725029 ], [ 7.092329, 50.7250016 ], [ 7.0923213, 50.7250044 ], [ 7.0923058, 50.7249883 ], [ 7.0923133, 50.7249848 ], [ 7.0922867, 50.724964 ], [ 7.0922816, 50.7249679 ], [ 7.0922613, 50.7249558 ], [ 7.0922666, 50.7249522 ], [ 7.0922427, 50.7249411 ], [ 7.0922191, 50.7249325 ], [ 7.0921862, 50.7249238 ], [ 7.0921593, 50.7249195 ], [ 7.092134, 50.7249166 ], [ 7.0920927, 50.7249159 ], [ 7.0920651, 50.7249179 ], [ 7.0920216, 50.7249252 ], [ 7.0919915, 50.7249336 ], [ 7.0919949, 50.7249374 ], [ 7.0919707, 50.7249464 ], [ 7.0919669, 50.7249429 ], [ 7.091942, 50.7249551 ], [ 7.091932, 50.724961 ], [ 7.0919373, 50.7249645 ], [ 7.09192, 50.7249762 ], [ 7.0919143, 50.7249732 ], [ 7.0918932, 50.7249921 ], [ 7.0918829, 50.7250037 ], [ 7.0918757, 50.7250143 ], [ 7.0918691, 50.7250259 ], [ 7.0918644, 50.7250367 ], [ 7.0918603, 50.7250523 ], [ 7.0917828, 50.725051 ], [ 7.0917832, 50.7250476 ], [ 7.0917873, 50.7250296 ], [ 7.0917478, 50.7249982 ], [ 7.091694, 50.7250254 ], [ 7.0917251, 50.7250501 ], [ 7.0914325, 50.7250453 ], [ 7.0914079, 50.725026 ], [ 7.091554, 50.724951 ], [ 7.0915609, 50.7249564 ], [ 7.0917188, 50.7248736 ], [ 7.0918748, 50.7247953 ], [ 7.0920427, 50.7247091 ], [ 7.0920348, 50.7247029 ], [ 7.0921792, 50.7246288 ], [ 7.0922379, 50.7246734 ], [ 7.0922965, 50.724721 ], [ 7.0922877, 50.7247255 ], [ 7.0923998, 50.7248136 ], [ 7.0923897, 50.725061 ] ], [ [ 7.0920245, 50.7248535 ], [ 7.0920456, 50.7248702 ], [ 7.0920631, 50.7248682 ], [ 7.0920829, 50.7248669 ], [ 7.0921059, 50.7248666 ], [ 7.0921302, 50.7248667 ], [ 7.0921544, 50.724869 ], [ 7.092175, 50.7248715 ], [ 7.0921861, 50.7248659 ], [ 7.0921137, 50.7248085 ], [ 7.0920245, 50.7248535 ] ] ] } },
{ "type": "Feature", "id": "map — multipolygons_142945675", "properties": { "barrier": null, "man_made": null, "name": "Lyrabecken", "osm_id": null, "other_tags": "\"water\"=>\"basin\"", "place": null, "source_layer": "map — multipolygons", "admin_level": null, "aeroway": null, "amenity": null, "boundary": null, "building": null, "craft": null, "geological": null, "historic": null, "land_area": null, "landuse": null, "leisure": null, "military": null, "natural": "water", "office": null, "osm_way_id": "142945675", "shop": null, "sport": null, "tourism": null, "type": null }, "bbox": [ 7.0914018, 50.724548, 7.0917055, 50.7247227 ], "geometry": { "type": "Polygon", "coordinates": [ [ [ 7.0915063, 50.7247052 ], [ 7.0914724, 50.7247227 ], [ 7.0914018, 50.7246682 ], [ 7.0914363, 50.7246502 ], [ 7.0914263, 50.7246425 ], [ 7.0915903, 50.7245574 ], [ 7.091601, 50.7245657 ], [ 7.0916352, 50.724548 ], [ 7.0917055, 50.7246023 ], [ 7.0916718, 50.7246198 ], [ 7.0916814, 50.7246272 ], [ 7.0915162, 50.7247129 ], [ 7.0915063, 50.7247052 ] ] ] } },
{ "type": "Feature", "id": "map — multipolygons_142945753", "properties": { "barrier": null, "man_made": null, "name": "Verwaltung der Botanischen Gärten Bonn", "osm_id": null, "other_tags": "\"addr:city\"=>\"Bonn\",\"addr:country\"=>\"DE\",\"addr:housenumber\"=>\"171\",\"addr:postcode\"=>\"53115\",\"addr:street\"=>\"Meckenheimer Allee\",\"building:colour\"=>\"white\",\"building:levels\"=>\"3\",\"roof:shape\"=>\"hipped\"", "place": null, "source_layer": "map — multipolygons", "admin_level": null, "aeroway": null, "amenity": null, "boundary": null, "building": "university", "craft": null, "geological": null, "historic": null, "land_area": null, "landuse": null, "leisure": null, "military": null, "natural": null, "office": null, "osm_way_id": "142945753", "shop": null, "sport": null, "tourism": null, "type": null }, "bbox": [ 7.0909896, 50.7245825, 7.0910415, 50.7246474 ], "geometry": { "type": "Polygon", "coordinates": [ [ [ 7.0909896, 50.7246474 ], [ 7.0909923, 50.7245825 ], [ 7.0910415, 50.7246209 ], [ 7.0909896, 50.7246474 ] ] ] } },
{ "type": "Feature", "id": "map — multipolygons_249309471", "properties": { "barrier": null, "man_made": null, "name": null, "osm_id": null, "other_tags": "\"building:levels\"=>\"2\",\"roof:shape\"=>\"flat\"", "place": null, "source_layer": "map — multipolygons", "admin_level": null, "aeroway": null, "amenity": null, "boundary": null, "building": "greenhouse", "craft": null, "geological": null, "historic": null, "land_area": null, "landuse": null, "leisure": null, "military": null, "natural": null, "office": null, "osm_way_id": "249309471", "shop": null, "sport": null, "tourism": null, "type": null }, "bbox": [ 7.0909877, 50.7246136, 7.0911519, 50.7247527 ], "geometry": { "type": "Polygon", "coordinates": [ [ [ 7.0909877, 50.7246947 ], [ 7.0909896, 50.7246474 ], [ 7.0910415, 50.7246209 ], [ 7.0910558, 50.7246136 ], [ 7.0911067, 50.7246536 ], [ 7.0910931, 50.7246605 ], [ 7.0911519, 50.7247065 ], [ 7.0910617, 50.7247527 ], [ 7.0909887, 50.7246955 ], [ 7.0909877, 50.7246947 ] ] ] } },
{ "type": "Feature", "id": "map — multipolygons_249309524", "properties": { "barrier": null, "man_made": null, "name": "Schaugewächshäuser", "osm_id": null, "other_tags": "\"opening_hours\"=>\"Mo-Fr 10:00-12:00,14:00-16:00; Apr-Oct Su,PH 10:00-17:30; Sa off\",\"wheelchair\"=>\"no\"", "place": null, "source_layer": "map — multipolygons", "admin_level": null, "aeroway": null, "amenity": null, "boundary": null, "building": "greenhouse", "craft": null, "geological": null, "historic": null, "land_area": null, "landuse": null, "leisure": null, "military": null, "natural": null, "office": null, "osm_way_id": "249309524", "shop": null, "sport": null, "tourism": "attraction", "type": null }, "bbox": [ 7.0909923, 50.7241393, 7.0916473, 50.7246209 ], "geometry": { "type": "Polygon", "coordinates": [ [ [ 7.0910289, 50.7241393 ], [ 7.091424, 50.7241458 ], [ 7.0915456, 50.7242417 ], [ 7.0915545, 50.7242382 ], [ 7.0916473, 50.724312 ], [ 7.0914537, 50.7244118 ], [ 7.0914123, 50.7244304 ], [ 7.0914278, 50.7244422 ], [ 7.0914172, 50.7244476 ], [ 7.0914257, 50.7244548 ], [ 7.0914508, 50.7244745 ], [ 7.0913904, 50.7245053 ], [ 7.0913194, 50.7245414 ], [ 7.0912933, 50.7245209 ], [ 7.0912878, 50.7245165 ], [ 7.0912811, 50.72452 ], [ 7.0912648, 50.7245071 ], [ 7.0912237, 50.7245281 ], [ 7.0910558, 50.7246136 ], [ 7.0910415, 50.7246209 ], [ 7.0909923, 50.7245825 ], [ 7.0910099, 50.724149 ], [ 7.0910289, 50.7241393 ] ] ] } },
{ "type": "Feature", "id": "map — multipolygons_885917790", "properties": { "barrier": null, "man_made": null, "name": null, "osm_id": null, "other_tags": null, "place": null, "source_layer": "map — multipolygons", "admin_level": null, "aeroway": null, "amenity": null, "boundary": null, "building": null, "craft": null, "geological": null, "historic": null, "land_area": null, "landuse": "grass", "leisure": null, "military": null, "natural": null, "office": null, "osm_way_id": "885917790", "shop": null, "sport": null, "tourism": null, "type": null }, "bbox": [ 7.0917809, 50.7244965, 7.0919827, 50.7246247 ], "geometry": { "type": "Polygon", "coordinates": [ [ [ 7.0919827, 50.724569 ], [ 7.0918731, 50.7246247 ], [ 7.0917809, 50.7245544 ], [ 7.0918933, 50.7244965 ], [ 7.0919827, 50.724569 ] ] ] } },
{ "type": "Feature", "id": "map — multipolygons_885917791", "properties": { "barrier": null, "man_made": null, "name": null, "osm_id": null, "other_tags": null, "place": null, "source_layer": "map — multipolygons", "admin_level": null, "aeroway": null, "amenity": null, "boundary": null, "building": null, "craft": null, "geological": null, "historic": null, "land_area": null, "landuse": "grass", "leisure": null, "military": null, "natural": null, "office": null, "osm_way_id": "885917791", "shop": null, "sport": null, "tourism": null, "type": null }, "bbox": [ 7.0916669, 50.7244088, 7.0918663, 50.7245341 ], "geometry": { "type": "Polygon", "coordinates": [ [ [ 7.0918663, 50.7244753 ], [ 7.0917528, 50.7245341 ], [ 7.0916669, 50.7244676 ], [ 7.0917804, 50.7244088 ], [ 7.0918663, 50.7244753 ] ] ] } },
{ "type": "Feature", "id": "map — multipolygons_885917792", "properties": { "barrier": null, "man_made": null, "name": null, "osm_id": null, "other_tags": null, "place": null, "source_layer": "map — multipolygons", "admin_level": null, "aeroway": null, "amenity": null, "boundary": null, "building": null, "craft": null, "geological": null, "historic": null, "land_area": null, "landuse": "grass", "leisure": null, "military": null, "natural": null, "office": null, "osm_way_id": "885917792", "shop": null, "sport": null, "tourism": null, "type": null }, "bbox": [ 7.0911537, 50.7247606, 7.0914697, 50.7249595 ], "geometry": { "type": "Polygon", "coordinates": [ [ [ 7.0914697, 50.7248324 ], [ 7.0912241, 50.7249595 ], [ 7.0911584, 50.7249069 ], [ 7.0911537, 50.7248971 ], [ 7.0911551, 50.7248859 ], [ 7.0911617, 50.7248728 ], [ 7.0913797, 50.7247606 ], [ 7.0914697, 50.7248324 ] ] ] } },
{ "type": "Feature", "id": "map — multipolygons_885917793", "properties": { "barrier": null, "man_made": null, "name": null, "osm_id": null, "other_tags": null, "place": null, "source_layer": "map — multipolygons", "admin_level": null, "aeroway": null, "amenity": null, "boundary": null, "building": null, "craft": null, "geological": null, "historic": null, "land_area": null, "landuse": "grass", "leisure": null, "military": null, "natural": null, "office": null, "osm_way_id": "885917793", "shop": null, "sport": null, "tourism": null, "type": null }, "bbox": [ 7.0911353, 50.7246721, 7.0913526, 50.7248323 ], "geometry": { "type": "Polygon", "coordinates": [ [ [ 7.0913526, 50.7247385 ], [ 7.0911677, 50.7248323 ], [ 7.0911475, 50.7248178 ], [ 7.0911394, 50.7248097 ], [ 7.0911361, 50.7247996 ], [ 7.0911353, 50.7247896 ], [ 7.0911412, 50.724771 ], [ 7.0911556, 50.7247481 ], [ 7.0911788, 50.7247236 ], [ 7.0912138, 50.7247022 ], [ 7.091272, 50.7246721 ], [ 7.0913526, 50.7247385 ] ] ] } },
{ "type": "Feature", "id": "map — multipolygons_885917798", "properties": { "barrier": null, "man_made": null, "name": null, "osm_id": null, "other_tags": null, "place": null, "source_layer": "map — multipolygons", "admin_level": null, "aeroway": null, "amenity": null, "boundary": null, "building": null, "craft": null, "geological": null, "historic": null, "land_area": null, "landuse": "grass", "leisure": null, "military": null, "natural": null, "office": null, "osm_way_id": "885917798", "shop": null, "sport": null, "tourism": null, "type": null }, "bbox": [ 7.0916654, 50.7245774, 7.0918053, 50.7246767 ], "geometry": { "type": "Polygon", "coordinates": [ [ [ 7.0918053, 50.7246124 ], [ 7.0916825, 50.7246767 ], [ 7.0916736, 50.7246699 ], [ 7.0916654, 50.7246635 ], [ 7.091762, 50.7246129 ], [ 7.0917334, 50.7245911 ], [ 7.0917468, 50.7245841 ], [ 7.0917595, 50.7245774 ], [ 7.0918053, 50.7246124 ] ] ] } },
{ "type": "Feature", "id": "map — multipolygons_885917799", "properties": { "barrier": null, "man_made": null, "name": null, "osm_id": null, "other_tags": null, "place": null, "source_layer": "map — multipolygons", "admin_level": null, "aeroway": null, "amenity": null, "boundary": null, "building": null, "craft": null, "geological": null, "historic": null, "land_area": null, "landuse": "grass", "leisure": null, "military": null, "natural": null, "office": null, "osm_way_id": "885917799", "shop": null, "sport": null, "tourism": null, "type": null }, "bbox": [ 7.0914222, 50.7247061, 7.0915972, 50.7247884 ], "geometry": { "type": "Polygon", "coordinates": [ [ [ 7.0915865, 50.7247142 ], [ 7.0915972, 50.7247226 ], [ 7.091468, 50.7247884 ], [ 7.0914222, 50.7247524 ], [ 7.0914356, 50.7247456 ], [ 7.0914507, 50.7247379 ], [ 7.0914754, 50.7247573 ], [ 7.0915761, 50.7247061 ], [ 7.0915865, 50.7247142 ] ] ] } },
{ "type": "Feature", "id": "map — multipolygons_885917800", "properties": { "barrier": null, "man_made": null, "name": null, "osm_id": null, "other_tags": null, "place": null, "source_layer": "map — multipolygons", "admin_level": null, "aeroway": null, "amenity": null, "boundary": null, "building": null, "craft": null, "geological": null, "historic": null, "land_area": null, "landuse": "grass", "leisure": null, "military": null, "natural": null, "office": null, "osm_way_id": "885917800", "shop": null, "sport": null, "tourism": null, "type": null }, "bbox": [ 7.0912985, 50.7245904, 7.0914465, 50.7247134 ], "geometry": { "type": "Polygon", "coordinates": [ [ [ 7.0913979, 50.7247001 ], [ 7.0913861, 50.7247063 ], [ 7.0913727, 50.7247134 ], [ 7.0912985, 50.7246568 ], [ 7.091425, 50.7245904 ], [ 7.0914354, 50.7245983 ], [ 7.0914465, 50.7246068 ], [ 7.0913453, 50.7246599 ], [ 7.0913979, 50.7247001 ] ] ] } },
{ "type": "Feature", "id": "map — multipolygons_885917801", "properties": { "barrier": null, "man_made": null, "name": null, "osm_id": null, "other_tags": null, "place": null, "source_layer": "map — multipolygons", "admin_level": null, "aeroway": null, "amenity": null, "boundary": null, "building": null, "craft": null, "geological": null, "historic": null, "land_area": null, "landuse": "grass", "leisure": null, "military": null, "natural": null, "office": null, "osm_way_id": "885917801", "shop": null, "sport": null, "tourism": null, "type": null }, "bbox": [ 7.0915177, 50.7244837, 7.0917103, 50.7245602 ], "geometry": { "type": "Polygon", "coordinates": [ [ [ 7.0916319, 50.7245105 ], [ 7.0915359, 50.7245602 ], [ 7.0915267, 50.7245532 ], [ 7.0915177, 50.7245462 ], [ 7.0916384, 50.7244837 ], [ 7.0917103, 50.7245393 ], [ 7.0916962, 50.7245467 ], [ 7.0916856, 50.7245521 ], [ 7.0916319, 50.7245105 ] ] ] } },
{ "type": "Feature", "id": "map — multipolygons_885917802", "properties": { "barrier": null, "man_made": null, "name": null, "osm_id": null, "other_tags": null, "place": null, "source_layer": "map — multipolygons", "admin_level": null, "aeroway": null, "amenity": null, "boundary": null, "building": null, "craft": null, "geological": null, "historic": null, "land_area": null, "landuse": "grass", "leisure": null, "military": null, "natural": null, "office": null, "osm_way_id": "885917802", "shop": null, "sport": null, "tourism": null, "type": null }, "bbox": [ 7.0917809, 50.7243212, 7.0920895, 50.7245486 ], "geometry": { "type": "Polygon", "coordinates": [ [ [ 7.0920109, 50.7245486 ], [ 7.0919992, 50.7245453 ], [ 7.0919338, 50.7244932 ], [ 7.0919704, 50.7244759 ], [ 7.0919125, 50.7244259 ], [ 7.0918739, 50.7244456 ], [ 7.0917897, 50.7243777 ], [ 7.0917809, 50.7243578 ], [ 7.0918573, 50.7243212 ], [ 7.0920895, 50.7245104 ], [ 7.0920109, 50.7245486 ] ] ] } },
{ "type": "Feature", "id": "map — multipolygons_885917803", "properties": { "barrier": null, "man_made": null, "name": null, "osm_id": null, "other_tags": null, "place": null, "source_layer": "map — multipolygons", "admin_level": null, "aeroway": null, "amenity": null, "boundary": null, "building": null, "craft": null, "geological": null, "historic": null, "land_area": null, "landuse": "grass", "leisure": null, "military": null, "natural": null, "office": null, "osm_way_id": "885917803", "shop": null, "sport": null, "tourism": null, "type": null }, "bbox": [ 7.0914537, 50.724312, 7.0916853, 50.7244685 ], "geometry": { "type": "Polygon", "coordinates": [ [ [ 7.0915295, 50.7244685 ], [ 7.0914537, 50.7244118 ], [ 7.0916473, 50.724312 ], [ 7.0916853, 50.7243449 ], [ 7.0916785, 50.7243901 ], [ 7.0915295, 50.7244685 ] ] ] } },
{ "type": "Feature", "id": "map — multipolygons_885917804", "properties": { "barrier": null, "man_made": null, "name": null, "osm_id": null, "other_tags": null, "place": null, "source_layer": "map — multipolygons", "admin_level": null, "aeroway": null, "amenity": null, "boundary": null, "building": null, "craft": null, "geological": null, "historic": null, "land_area": null, "landuse": "grass", "leisure": null, "military": null, "natural": null, "office": null, "osm_way_id": "885917804", "shop": null, "sport": null, "tourism": null, "type": null }, "bbox": [ 7.0910558, 50.7245281, 7.0912986, 50.7246796 ], "geometry": { "type": "Polygon", "coordinates": [ [ [ 7.0911067, 50.7246536 ], [ 7.0910558, 50.7246136 ], [ 7.0912237, 50.7245281 ], [ 7.0912986, 50.7245875 ], [ 7.0912174, 50.7246303 ], [ 7.0912252, 50.7246364 ], [ 7.0911423, 50.7246796 ], [ 7.0911067, 50.7246536 ] ] ] } },
{ "type": "Feature", "id": "map — multipolygons_885927042", "properties": { "barrier": null, "man_made": null, "name": "Regenwaldhaus", "osm_id": null, "other_tags": "\"building:part\"=>\"yes\"", "place": null, "source_layer": "map — multipolygons", "admin_level": null, "aeroway": null, "amenity": null, "boundary": null, "building": null, "craft": null, "geological": null, "historic": null, "land_area": null, "landuse": null, "leisure": null, "military": null, "natural": null, "office": null, "osm_way_id": "885927042", "shop": null, "sport": null, "tourism": "attraction", "type": null }, "bbox": [ 7.0909923, 50.7243484, 7.0914278, 50.7246209 ], "geometry": { "type": "Polygon", "coordinates": [ [ [ 7.0909923, 50.7245825 ], [ 7.0909945, 50.7245274 ], [ 7.0910675, 50.7244896 ], [ 7.0911281, 50.7244584 ], [ 7.0911727, 50.7244355 ], [ 7.0911612, 50.7244269 ], [ 7.091239, 50.7243873 ], [ 7.0913153, 50.7243484 ], [ 7.0913244, 50.7243554 ], [ 7.0913434, 50.7243716 ], [ 7.0914123, 50.7244304 ], [ 7.0914278, 50.7244422 ], [ 7.0914172, 50.7244476 ], [ 7.0913742, 50.7244705 ], [ 7.0913193, 50.7244997 ], [ 7.0912878, 50.7245165 ], [ 7.0912811, 50.72452 ], [ 7.0912648, 50.7245071 ], [ 7.0912237, 50.7245281 ], [ 7.0910558, 50.7246136 ], [ 7.0910415, 50.7246209 ], [ 7.0909923, 50.7245825 ] ] ] } },
{ "type": "Feature", "id": "map — multipolygons_885927043", "properties": { "barrier": null, "man_made": null, "name": "Victoriahaus", "osm_id": null, "other_tags": "\"building:part\"=>\"yes\"", "place": null, "source_layer": "map — multipolygons", "admin_level": null, "aeroway": null, "amenity": null, "boundary": null, "building": null, "craft": null, "geological": null, "historic": null, "land_area": null, "landuse": null, "leisure": null, "military": null, "natural": null, "office": null, "osm_way_id": "885927043", "shop": null, "sport": null, "tourism": "attraction", "type": null }, "bbox": [ 7.0910036, 50.7241393, 7.0913153, 50.7244269 ], "geometry": { "type": "Polygon", "coordinates": [ [ [ 7.0910289, 50.7241393 ], [ 7.0910497, 50.7241397 ], [ 7.0910607, 50.7241483 ], [ 7.0913153, 50.7243484 ], [ 7.091239, 50.7243873 ], [ 7.0911612, 50.7244269 ], [ 7.0910158, 50.7243126 ], [ 7.0910036, 50.724303 ], [ 7.0910099, 50.724149 ], [ 7.0910289, 50.7241393 ] ] ] } },
{ "type": "Feature", "id": "map — multipolygons_886262300", "properties": { "barrier": null, "man_made": null, "name": null, "osm_id": null, "other_tags": null, "place": null, "source_layer": "map — multipolygons", "admin_level": null, "aeroway": null, "amenity": null, "boundary": null, "building": null, "craft": null, "geological": null, "historic": null, "land_area": null, "landuse": "grass", "leisure": null, "military": null, "natural": null, "office": null, "osm_way_id": "886262300", "shop": null, "sport": null, "tourism": null, "type": null }, "bbox": [ 7.0909783, 50.7247789, 7.0910408, 50.724925 ], "geometry": { "type": "MultiPolygon", "coordinates": [ [ [ [ 7.0909783, 50.724925 ], [ 7.090983, 50.7248106 ], [ 7.0909883, 50.7248196 ], [ 7.0910287, 50.7248562 ], [ 7.0910383, 50.7248673 ], [ 7.0910404, 50.724875 ], [ 7.0910408, 50.7248838 ], [ 7.0910341, 50.7248944 ], [ 7.0910228, 50.7249023 ], [ 7.0909783, 50.724925 ] ] ], [ [ [ 7.0909836, 50.7247957 ], [ 7.0909843, 50.7247789 ], [ 7.0909904, 50.7247838 ], [ 7.0909836, 50.7247957 ] ] ] ] } },
{ "type": "Feature", "id": "map — multipolygons_886426923", "properties": { "barrier": null, "man_made": null, "name": null, "osm_id": null, "other_tags": null, "place": null, "source_layer": "map — multipolygons", "admin_level": null, "aeroway": null, "amenity": null, "boundary": null, "building": null, "craft": null, "geological": null, "historic": null, "land_area": null, "landuse": "grass", "leisure": null, "military": null, "natural": null, "office": null, "osm_way_id": "886426923", "shop": null, "sport": null, "tourism": null, "type": null }, "bbox": [ 7.0909738, 50.7249263, 7.0912607, 50.7250425 ], "geometry": { "type": "Polygon", "coordinates": [ [ [ 7.0909738, 50.7250378 ], [ 7.0909763, 50.7249758 ], [ 7.0910288, 50.7249482 ], [ 7.0910523, 50.7249365 ], [ 7.0910687, 50.7249307 ], [ 7.0910849, 50.7249263 ], [ 7.0911007, 50.7249265 ], [ 7.0911144, 50.7249287 ], [ 7.0911321, 50.7249374 ], [ 7.0912607, 50.7250425 ], [ 7.0909738, 50.7250378 ] ] ] } },
{ "type": "Feature", "id": "map — multipolygons_890194508", "properties": { "barrier": null, "man_made": null, "name": null, "osm_id": null, "other_tags": null, "place": null, "source_layer": "map — multipolygons", "admin_level": null, "aeroway": null, "amenity": null, "boundary": null, "building": null, "craft": null, "geological": null, "historic": null, "land_area": null, "landuse": "grass", "leisure": null, "military": null, "natural": null, "office": null, "osm_way_id": "890194508", "shop": null, "sport": null, "tourism": null, "type": null }, "bbox": [ 7.0915903, 50.7245397, 7.0916352, 50.7245657 ], "geometry": { "type": "Polygon", "coordinates": [ [ [ 7.091601, 50.7245657 ], [ 7.0915903, 50.7245574 ], [ 7.0916245, 50.7245397 ], [ 7.0916352, 50.724548 ], [ 7.091601, 50.7245657 ] ] ] } },
{ "type": "Feature", "id": "map — multipolygons_890194509", "properties": { "barrier": null, "man_made": null, "name": null, "osm_id": null, "other_tags": null, "place": null, "source_layer": "map — multipolygons", "admin_level": null, "aeroway": null, "amenity": null, "boundary": null, "building": null, "craft": null, "geological": null, "historic": null, "land_area": null, "landuse": "grass", "leisure": null, "military": null, "natural": null, "office": null, "osm_way_id": "890194509", "shop": null, "sport": null, "tourism": null, "type": null }, "bbox": [ 7.0916718, 50.7246023, 7.0917151, 50.7246272 ], "geometry": { "type": "Polygon", "coordinates": [ [ [ 7.0916814, 50.7246272 ], [ 7.0916718, 50.7246198 ], [ 7.0917055, 50.7246023 ], [ 7.0917151, 50.7246097 ], [ 7.0916814, 50.7246272 ] ] ] } },
{ "type": "Feature", "id": "map — multipolygons_890194510", "properties": { "barrier": null, "man_made": null, "name": null, "osm_id": null, "other_tags": null, "place": null, "source_layer": "map — multipolygons", "admin_level": null, "aeroway": null, "amenity": null, "boundary": null, "building": null, "craft": null, "geological": null, "historic": null, "land_area": null, "landuse": "grass", "leisure": null, "military": null, "natural": null, "office": null, "osm_way_id": "890194510", "shop": null, "sport": null, "tourism": null, "type": null }, "bbox": [ 7.0914724, 50.7247052, 7.0915162, 50.7247304 ], "geometry": { "type": "Polygon", "coordinates": [ [ [ 7.0915063, 50.7247052 ], [ 7.0915162, 50.7247129 ], [ 7.0914824, 50.7247304 ], [ 7.0914724, 50.7247227 ], [ 7.0915063, 50.7247052 ] ] ] } },
{ "type": "Feature", "id": "map — multipolygons_890194511", "properties": { "barrier": null, "man_made": null, "name": null, "osm_id": null, "other_tags": null, "place": null, "source_layer": "map — multipolygons", "admin_level": null, "aeroway": null, "amenity": null, "boundary": null, "building": null, "craft": null, "geological": null, "historic": null, "land_area": null, "landuse": "grass", "leisure": null, "military": null, "natural": null, "office": null, "osm_way_id": "890194511", "shop": null, "sport": null, "tourism": null, "type": null }, "bbox": [ 7.0913917, 50.7246425, 7.0914363, 50.7246682 ], "geometry": { "type": "Polygon", "coordinates": [ [ [ 7.0914363, 50.7246502 ], [ 7.0914018, 50.7246682 ], [ 7.0913917, 50.7246604 ], [ 7.0914263, 50.7246425 ], [ 7.0914363, 50.7246502 ] ] ] } },
{ "type": "Feature", "id": "map — multipolygons_1355429662", "properties": { "barrier": null, "man_made": null, "name": "Mittelmeerhaus", "osm_id": null, "other_tags": "\"building:part\"=>\"yes\"", "place": null, "source_layer": "map — multipolygons", "admin_level": null, "aeroway": null, "amenity": null, "boundary": null, "building": null, "craft": null, "geological": null, "historic": null, "land_area": null, "landuse": null, "leisure": null, "military": null, "natural": null, "office": null, "osm_way_id": "1355429662", "shop": null, "sport": null, "tourism": "attraction", "type": null }, "bbox": [ 7.0913244, 50.7242382, 7.0916473, 50.7244304 ], "geometry": { "type": "Polygon", "coordinates": [ [ [ 7.0913434, 50.7243716 ], [ 7.0913244, 50.7243554 ], [ 7.0913811, 50.7243265 ], [ 7.0914432, 50.7242949 ], [ 7.0915545, 50.7242382 ], [ 7.0916473, 50.724312 ], [ 7.0914123, 50.7244304 ], [ 7.0913434, 50.7243716 ] ] ] } },
{ "type": "Feature", "id": "map — multipolygons_1355429664", "properties": { "barrier": null, "man_made": null, "name": "Monsunhaus", "osm_id": null, "other_tags": "\"building:part\"=>\"yes\"", "place": null, "source_layer": "map — multipolygons", "admin_level": null, "aeroway": null, "amenity": null, "boundary": null, "building": null, "craft": null, "geological": null, "historic": null, "land_area": null, "landuse": null, "leisure": null, "military": null, "natural": null, "office": null, "osm_way_id": "1355429664", "shop": null, "sport": null, "tourism": "attraction", "type": null }, "bbox": [ 7.0909982, 50.7243126, 7.0911727, 50.7244896 ], "geometry": { "type": "Polygon", "coordinates": [ [ [ 7.0909982, 50.7244356 ], [ 7.091003, 50.7243192 ], [ 7.0910158, 50.7243126 ], [ 7.0911612, 50.7244269 ], [ 7.0911727, 50.7244355 ], [ 7.0911281, 50.7244584 ], [ 7.0910675, 50.7244896 ], [ 7.0909982, 50.7244356 ] ] ] } }
]
}
